     2              NAVIGATION DATA                         RINEX VERSION / TYPE
CCRINEXN V1.6.0 UX  CDDIS               30-APR-21 19:31     PGM / RUN BY / DATE 
IGS BROADCAST EPHEMERIS FILE                                COMMENT             
    0.9313D-08  0.1490D-07 -0.5960D-07 -0.1192D-06          ION ALPHA           
    0.8806D+05  0.4915D+05 -0.1311D+06 -0.3277D+06          ION BETA            
   -0.931322574615D-09 0.266453525910D-14   589824     2155 DELTA-UTC: A0,A1,T,W
    18                                                      LEAP SECONDS        
                                                            END OF HEADER       
10 21  4 29 12  0  0.0-0.111793167889D-03-0.773070496507D-11 0.000000000000D+00
    0.890000000000D+02 0.130000000000D+02 0.436946772016D-08 0.114342673615D+01
    0.620260834694D-06 0.660719443113D-02 0.937655568123D-05 0.515366883850D+04
    0.388800000000D+06-0.154599547386D-06-0.190272141443D+01 0.428408384323D-07
    0.968636937331D+00 0.202937500000D+03-0.256122416769D+01-0.787818530090D-08
    0.636812240072D-09 0.100000000000D+01 0.215500000000D+04 0.000000000000D+00
    0.200000000000D+01 0.000000000000D+00 0.232830643654D-08 0.890000000000D+02
    0.381618000000D+06 0.400000000000D+01 0.000000000000D+00 0.000000000000D+00
12 21  4 29 12  0  0.0-0.342782586813D-04-0.511590769747D-11 0.000000000000D+00
    0.230000000000D+02 0.131781250000D+03 0.425517724521D-08 0.185213644583D+01
    0.653974711895D-05 0.847382855136D-02 0.564567744732D-05 0.515375508499D+04
    0.388800000000D+06-0.117346644402D-06 0.131294248708D+01-0.197440385819D-06
    0.973804247793D+00 0.274937500000D+03 0.120548020861D+01-0.803140596887D-08
    0.159649507186D-09 0.100000000000D+01 0.215500000000D+04 0.000000000000D+00
    0.200000000000D+01 0.000000000000D+00-0.125728547573D-07 0.230000000000D+02
    0.381618000000D+06 0.400000000000D+01 0.000000000000D+00 0.000000000000D+00
13 21  4 29 12  0  0.0 0.125797931105D-03 0.466116034659D-11 0.000000000000D+00
    0.460000000000D+02-0.202500000000D+02 0.484377319117D-08-0.148267447925D+01
   -0.985339283943D-06 0.493496959098D-02 0.613555312157D-05 0.515366902924D+04
    0.388800000000D+06 0.800937414169D-07-0.721335593860D+00 0.279396772385D-07
    0.967999081641D+00 0.263062500000D+03 0.982664159518D+00-0.805569269479D-08
   -0.230723896291D-09 0.100000000000D+01 0.215500000000D+04 0.000000000000D+00
    0.200000000000D+01 0.000000000000D+00-0.111758708954D-07 0.460000000000D+02
    0.381618000000D+06 0.400000000000D+01 0.000000000000D+00 0.000000000000D+00
14 21  4 29 12  0  0.0 0.917976722121D-04-0.397903932026D-11 0.000000000000D+00
    0.197000000000D+03 0.154093750000D+03 0.465733685392D-08 0.232520798641D+01
    0.808387994766D-05 0.616461155005D-03 0.583752989769D-05 0.515375950623D+04
    0.388800000000D+06 0.819563865662D-07 0.128622440667D+01 0.223517417908D-07
    0.957314671153D+00 0.264406250000D+03 0.256303581325D+01-0.836356266167D-08
    0.198222542479D-09 0.100000000000D+01 0.215500000000D+04 0.000000000000D+00
    0.200000000000D+01 0.000000000000D+00-0.791624188423D-08 0.197000000000D+03
    0.381618000000D+06 0.400000000000D+01 0.000000000000D+00 0.000000000000D+00
15 21  4 29 12  0  0.0-0.152865890414D-03 0.261479726760D-11 0.000000000000D+00
    0.970000000000D+02-0.108125000000D+02 0.573416742252D-08-0.182006792541D+01
   -0.597909092903D-06 0.131197345909D-01 0.446103513241D-05 0.515359331513D+04
    0.388800000000D+06 0.189989805222D-06-0.967890811074D+00-0.130385160446D-07
    0.928645232110D+00 0.267468750000D+03 0.979368677608D+00-0.848571060677D-08
    0.123933733766D-09 0.100000000000D+01 0.215500000000D+04 0.000000000000D+00
    0.200000000000D+01 0.000000000000D+00-0.107102096081D-07 0.970000000000D+02
    0.381618000000D+06 0.400000000000D+01 0.000000000000D+00 0.000000000000D+00
16 21  4 29 12  0  0.0-0.317231751978D-03-0.602540239925D-11 0.000000000000D+00
    0.800000000000D+01 0.136656250000D+03 0.439589739249D-08 0.140022282319D-01
    0.729784369469D-05 0.122448325856D-01 0.462681055069D-05 0.515369017410D+04
    0.388800000000D+06 0.100582838059D-06 0.133171026312D+01 0.169500708580D-06
    0.973879975747D+00 0.294531250000D+03 0.674735924248D+00-0.835534803378D-08
    0.153220667970D-09 0.100000000000D+01 0.215500000000D+04 0.000000000000D+00
    0.200000000000D+01 0.000000000000D+00-0.102445483208D-07 0.800000000000D+01
    0.381618000000D+06 0.400000000000D+01 0.000000000000D+00 0.000000000000D+00
17 21  4 29 12  0  0.0 0.434265937656D-03 0.625277607469D-11 0.000000000000D+00
    0.790000000000D+02-0.549687500000D+02 0.441054085959D-08-0.912737594042D+00
   -0.273808836937D-05 0.133421615465D-01 0.101141631603D-05 0.515358653641D+04
    0.388800000000D+06-0.203028321266D-06 0.234941296520D+01 0.150874257088D-06
    0.982226202807D+00 0.374406250000D+03-0.156899311056D+01-0.861464454881D-08
   -0.244295890190D-09 0.100000000000D+01 0.215500000000D+04 0.000000000000D+00
    0.200000000000D+01 0.000000000000D+00-0.111758708954D-07 0.790000000000D+02
    0.386502000000D+06 0.400000000000D+01 0.000000000000D+00 0.000000000000D+00
18 21  4 29 12  0  0.0 0.351304654032D-03-0.454747350886D-12 0.000000000000D+00
    0.480000000000D+02-0.115718750000D+03 0.396837958465D-08-0.284169986599D+01
   -0.600516796112D-05 0.133038009517D-02 0.101625919342D-04 0.515367295456D+04
    0.388800000000D+06-0.558793544769D-08-0.292517212539D+01 0.167638063431D-07
    0.968122453912D+00 0.187281250000D+03 0.293583077828D+01-0.776925219197D-08
    0.167864135072D-10 0.100000000000D+01 0.215500000000D+04 0.000000000000D+00
    0.200000000000D+01 0.000000000000D+00-0.838190317154D-08 0.560000000000D+03
    0.386478000000D+06 0.400000000000D+01 0.000000000000D+00 0.000000000000D+00
19 21  4 29 12  0  0.0-0.659888610244D-05 0.500222085975D-11 0.000000000000D+00
    0.260000000000D+02-0.675937500000D+02 0.427410660513D-08 0.158574530879D+01
   -0.392273068428D-05 0.923647789750D-02 0.476837158203D-06 0.515363223267D+04
    0.388800000000D+06 0.134110450745D-06 0.239460597471D+01-0.856816768646D-07
    0.980762310424D+00 0.380343750000D+03 0.181863155051D+01-0.832356099544D-08
   -0.367515308488D-09 0.100000000000D+01 0.215500000000D+04 0.000000000000D+00
    0.200000000000D+01 0.000000000000D+00-0.153668224812D-07 0.260000000000D+02
    0.381618000000D+06 0.400000000000D+01 0.000000000000D+00 0.000000000000D+00
20 21  4 29 12  0  0.0 0.522693619132D-03-0.341060513165D-12 0.000000000000D+00
    0.230000000000D+02-0.181250000000D+01 0.482734393539D-08 0.313591052178D+01
    0.117346644402D-06 0.605226506013D-02 0.980682671070D-05 0.515170973587D+04
    0.388800000000D+06-0.931322574615D-07-0.204478279535D+01-0.540167093277D-07
    0.937680004970D+00 0.175937500000D+03 0.302881264742D+01-0.805962142987D-08
    0.720744307608D-09 0.100000000000D+01 0.215500000000D+04 0.000000000000D+00
    0.200000000000D+01 0.000000000000D+00-0.838190317154D-08 0.230000000000D+02
    0.381618000000D+06 0.400000000000D+01 0.000000000000D+00 0.000000000000D+00
21 21  4 29 12  0  0.0 0.114538706839D-03 0.272848410532D-11 0.000000000000D+00
    0.780000000000D+02-0.134343750000D+03 0.419338895720D-08-0.732972494218D+00
   -0.710599124432D-05 0.241059563123D-01 0.106506049633D-04 0.515370240402D+04
    0.388800000000D+06-0.385567545891D-06-0.302025511793D+01 0.633299350738D-07
    0.957259753208D+00 0.177281250000D+03-0.114747880565D+01-0.831034615927D-08
    0.133934150323D-09 0.100000000000D+01 0.215500000000D+04 0.000000000000D+00
    0.200000000000D+01 0.000000000000D+00-0.102445483208D-07 0.780000000000D+02
    0.381653000000D+06 0.400000000000D+01 0.000000000000D+00 0.000000000000D+00
22 21  4 29 12  0  0.0-0.626568216831D-03 0.909494701773D-11 0.000000000000D+00
    0.180000000000D+02 0.584375000000D+01 0.500377985609D-08-0.188269071145D+01
    0.504776835442D-06 0.706769106910D-02 0.103916972876D-04 0.515354812813D+04
    0.388800000000D+06-0.104308128357D-06-0.199834963800D+01 0.173225998878D-06
    0.934344333775D+00 0.165968750000D+03-0.987453643591D+00-0.817891211309D-08
    0.836106255753D-09 0.100000000000D+01 0.215500000000D+04 0.000000000000D+00
    0.200000000000D+01 0.000000000000D+00-0.176951289177D-07 0.180000000000D+02
    0.381618000000D+06 0.400000000000D+01 0.000000000000D+00 0.000000000000D+00
23 21  4 29 12  0  0.0 0.110505148768D-03-0.261479726760D-11 0.000000000000D+00
    0.670000000000D+02 0.111562500000D+02 0.444768526394D-08 0.278583540159D+01
    0.545755028725D-06 0.113319978118D-02 0.931322574616D-05 0.515364839935D+04
    0.388800000000D+06-0.372529029846D-07-0.192605997268D+01-0.223517417908D-07
    0.963635068274D+00 0.197250000000D+03 0.258585173232D+01-0.788639992878D-08
    0.698957685822D-09 0.100000000000D+01 0.215500000000D+04 0.000000000000D+00
    0.200000000000D+01 0.000000000000D+00-0.838190317154D-08 0.835000000000D+03
    0.381618000000D+06 0.400000000000D+01 0.000000000000D+00 0.000000000000D+00
24 21  4 29 12  0  0.0 0.443710014224D-04 0.272848410532D-10 0.000000000000D+00
    0.470000000000D+02 0.215625000000D+02 0.499127933539D-08-0.273534317907D+01
    0.961124897003D-06 0.110553343548D-01 0.116396695375D-04 0.515373869324D+04
    0.388800000000D+06 0.279396772385D-07 0.125042432748D+00-0.214204192162D-06
    0.935621351539D+00 0.139718750000D+03 0.738156558018D+00-0.798068957061D-08
   -0.455018953366D-09 0.100000000000D+01 0.215500000000D+04 0.000000000000D+00
    0.280000000000D+01 0.000000000000D+00 0.279396772385D-08 0.470000000000D+02
    0.381618000000D+06 0.400000000000D+01 0.000000000000D+00 0.000000000000D+00
